STARLINK-1653           
1 46352U 20062AD  24009.08848881  .00003957  00000+0  28440-3 0  9994
2 46352  53.0551 305.7669 0001427  81.2896 278.8254 15.06398993185615
STARLINK-1656           
1 46353U 20062AE  24009.15299296  .00003021  00000+0  22162-3 0  9990
2 46353  53.0570 325.4705 0001758 113.5119 246.6055 15.06398765185339
STARLINK-1657           
1 46354U 20062AF  24009.14191994  .00001486  00000+0  11862-3 0  9994
2 46354  53.0546 325.5270 0002243 145.4283 214.6852 15.06403783185334
STARLINK-1661           
1 46355U 20062AG  24009.11613037  .00000425  00000+0  47447-4 0  9990
2 46355  53.0545 325.6423 0001356 105.3177 254.7962 15.06392573185337
STARLINK-1665           
1 46356U 20062AH  24009.13088033  .00001820  00000+0  14110-3 0  9995
2 46356  53.0543 325.6126 0001582 117.1406 242.9744 15.06394056185338
STARLINK-1666           
1 46357U 20062AJ  24009.12534768  .00004641  00000+0  33028-3 0  9999
2 46357  53.0555 305.5977 0001744 102.9702 257.1482 15.06398136185615
STARLINK-1690           
1 46358U 20062AK  24009.10506909  .00000685  00000+0  64903-4 0  9995
2 46358  53.0555 325.6804 0002228 126.0118 234.1078 15.06393698185337
STARLINK-1707           
1 46359U 20062AL  24008.95257491  .00010865  00000+0  74702-3 0  9995
2 46359  53.0548 281.3757 0001411  86.3887 273.7264 15.06407044185752
STARLINK-1713           
1 46360U 20062AM  24009.04102249  .00010692  00000+0  73542-3 0  9997
2 46360  53.0548 280.9819 0001542 101.0561 259.0602 15.06409800185954
STARLINK-1722           
1 46361U 20062AN  24009.01059849  .00007011  00000+0  48898-3 0  9999
2 46361  53.0541 281.1022 0001428  89.6837 270.4315 15.06411091185938
STARLINK-1726           
1 46362U 20062AP  24009.05577849  .00004764  00000+0  33844-3 0  9996
2 46362  53.0539 280.9170 0001431  84.6602 275.4550 15.06407361185959
STARLINK-1739           
1 46363U 20062AQ  24008.98110154  .00001696  00000+0  13271-3 0  9993
2 46363  53.0539 281.2416 0001452  95.4764 264.6390 15.06406758185916
STARLINK-1763           
1 46364U 20062AR  24008.98395653  .00001598  00000+0  12609-3 0  9998
2 46364  53.0545 261.7433 0001504  98.4939 261.6220 15.06409264186219
STARLINK-1550           
1 46365U 20062AS  24008.92230873  .00090896  00000+0  90623-3 0  9996
2 46365  53.0484 250.5807 0007222 139.7787 220.3763 15.64908160186347
STARLINK-1651           
1 46366U 20062AT  24009.01523002  .00011114  00000+0  76353-3 0  9997
2 46366  53.0538 281.0973 0001458  83.3906 276.7249 15.06415377185941
STARLINK-1658           
1 46368U 20062AV  24009.01382311  .00003615  00000+0  26146-3 0  9997
2 46368  53.0553 306.0910 0001790 121.1835 238.9329 15.06400164185600
