[{"OBJECT_NAME":"STARLINK-1653","OBJECT_ID":"2020-062AD","EPOCH":"2024-01-09T02:07:25.433184","MEAN_MOTION":15.06398993,"ECCENTRICITY":0.0001427,"INCLINATION":53.0551,"RA_OF_ASC_NODE":305.7669,"ARG_OF_PERICENTER":81.2896,"MEAN_ANOMALY":278.8254,"EPHEMERIS_TYPE":0,"CLASSIFICATION_TYPE":"U","NORAD_CAT_ID":46352,"ELEMENT_SET_NO":999,"REV_AT_EPOCH":18561,"BSTAR":0.0002844,"MEAN_MOTION_DOT":3.957e-5,"MEAN_MOTION_DDOT":0},{"OBJECT_NAME":"STARLINK-1656","OBJECT_ID":"2020-062AE","EPOCH":"2024-01-09T03:40:18.591744","MEAN_MOTION":15.06398765,"ECCENTRICITY":0.0001758,"INCLINATION":53.057,"RA_OF_ASC_NODE":325.4705,"ARG_OF_PERICENTER":113.5119,"MEAN_ANOMALY":246.6055,"EPHEMERIS_TYPE":0,"CLASSIFICATION_TYPE":"U","NORAD_CAT_ID":46353,"ELEMENT_SET_NO":999,"REV_AT_EPOCH":18533,"BSTAR":0.00022162,"MEAN_MOTION_DOT":3.021e-5,"MEAN_MOTION_DDOT":0},{"OBJECT_NAME":"STARLINK-1657","OBJECT_ID":"2020-062AF","EPOCH":"2024-01-09T03:24:21.882816","MEAN_MOTION":15.06403783,"ECCENTRICITY":0.0002243,"INCLINATION":53.0546,"RA_OF_ASC_NODE":325.527,"ARG_OF_PERICENTER":145.4283,"MEAN_ANOMALY":214.6852,"EPHEMERIS_TYPE":0,"CLASSIFICATION_TYPE":"U","NORAD_CAT_ID":46354,"ELEMENT_SET_NO":999,"REV_AT_EPOCH":18533,"BSTAR":0.00011862,"MEAN_MOTION_DOT":1.486e-5,"MEAN_MOTION_DDOT":0},{"OBJECT_NAME":"STARLINK-1661","OBJECT_ID":"2020-062AG","EPOCH":"2024-01-09T02:47:13.663968","MEAN_MOTION":15.06392573,"ECCENTRICITY":0.0001356,"INCLINATION":53.0545,"RA_OF_ASC_NODE":325.6423,"ARG_OF_PERICENTER":105.3177,"MEAN_ANOMALY":254.7962,"EPHEMERIS_TYPE":0,"CLASSIFICATION_TYPE":"U","NORAD_CAT_ID":46355,"ELEMENT_SET_NO":999,"REV_AT_EPOCH":18533,"BSTAR":4.7447e-5,"MEAN_MOTION_DOT":4.25e-6,"MEAN_MOTION_DDOT":0},{"OBJECT_NAME":"STARLINK-1665","OBJECT_ID":"2020-062AH","EPOCH":"2024-01-09T03:08:28.060512","MEAN_MOTION":15.06394056,"ECCENTRICITY":0.0001582,"INCLINATION":53.0543,"RA_OF_ASC_NODE":325.6126,"ARG_OF_PERICENTER":117.1406,"MEAN_ANOMALY":242.9744,"EPHEMERIS_TYPE":0,"CLASSIFICATION_TYPE":"U","NORAD_CAT_ID":46356,"ELEMENT_SET_NO":999,"REV_AT_EPOCH":18533,"BSTAR":0.0001411,"MEAN_MOTION_DOT":1.82e-5,"MEAN_MOTION_DDOT":0},{"OBJECT_NAME":"STARLINK-1666","OBJECT_ID":"2020-062AJ","EPOCH":"2024-01-09T03:00:30.039552","MEAN_MOTION":15.06398136,"ECCENTRICITY":0.0001744,"INCLINATION":53.0555,"RA_OF_ASC_NODE":305.5977,"ARG_OF_PERICENTER":102.9702,"MEAN_ANOMALY":257.1482,"EPHEMERIS_TYPE":0,"CLASSIFICATION_TYPE":"U","NORAD_CAT_ID":46357,"ELEMENT_SET_NO":999,"REV_AT_EPOCH":18561,"BSTAR":0.00033028,"MEAN_MOTION_DOT":4.641e-5,"MEAN_MOTION_DDOT":0},{"OBJECT_NAME":"STARLINK-1690","OBJECT_ID":"2020-062AK","EPOCH":"2024-01-09T02:31:17.969376","MEAN_MOTION":15.06393698,"ECCENTRICITY":0.0002228,"INCLINATION":53.0555,"RA_OF_ASC_NODE":325.6804,"ARG_OF_PERICENTER":126.0118,"MEAN_ANOMALY":234.1078,"EPHEMERIS_TYPE":0,"CLASSIFICATION_TYPE":"U","NORAD_CAT_ID":46358,"ELEMENT_SET_NO":999,"REV_AT_EPOCH":18533,"BSTAR":6.4903e-5,"MEAN_MOTION_DOT":6.85e-6,"MEAN_MOTION_DDOT":0},{"OBJECT_NAME":"STARLINK-1707","OBJECT_ID":"2020-062AL","EPOCH":"2024-01-08T22:51:42.472224","MEAN_MOTION":15.06407044,"ECCENTRICITY":0.0001411,"INCLINATION":53.0548,"RA_OF_ASC_NODE":281.3757,"ARG_OF_PERICENTER":86.3887,"MEAN_ANOMALY":273.7264,"EPHEMERIS_TYPE":0,"CLASSIFICATION_TYPE":"U","NORAD_CAT_ID":46359,"ELEMENT_SET_NO":999,"REV_AT_EPOCH":18575,"BSTAR":0.00074702,"MEAN_MOTION_DOT":0.00010865,"MEAN_MOTION_DDOT":0},{"OBJECT_NAME":"STARLINK-1713","OBJECT_ID":"2020-062AM","EPOCH":"2024-01-09T00:59:04.343136","MEAN_MOTION":15.064098,"ECCENTRICITY":0.0001542,"INCLINATION":53.0548,"RA_OF_ASC_NODE":280.9819,"ARG_OF_PERICENTER":101.0561,"MEAN_ANOMALY":259.0602,"EPHEMERIS_TYPE":0,"CLASSIFICATION_TYPE":"U","NORAD_CAT_ID":46360,"ELEMENT_SET_NO":999,"REV_AT_EPOCH":18595,"BSTAR":0.00073542,"MEAN_MOTION_DOT":0.00010692,"MEAN_MOTION_DDOT":0},{"OBJECT_NAME":"STARLINK-1722","OBJECT_ID":"2020-062AN","EPOCH":"2024-01-09T00:15:15.709536","MEAN_MOTION":15.06411091,"ECCENTRICITY":0.0001428,"INCLINATION":53.0541,"RA_OF_ASC_NODE":281.1022,"ARG_OF_PERICENTER":89.6837,"MEAN_ANOMALY":270.4315,"EPHEMERIS_TYPE":0,"CLASSIFICATION_TYPE":"U","NORAD_CAT_ID":46361,"ELEMENT_SET_NO":999,"REV_AT_EPOCH":18593,"BSTAR":0.00048898,"MEAN_MOTION_DOT":7.011e-5,"MEAN_MOTION_DDOT":0},{"OBJECT_NAME":"STARLINK-1726","OBJECT_ID":"2020-062AP","EPOCH":"2024-01-09T01:20:19.261536","MEAN_MOTION":15.06407361,"ECCENTRICITY":0.0001431,"INCLINATION":53.0539,"RA_OF_ASC_NODE":280.917,"ARG_OF_PERICENTER":84.6602,"MEAN_ANOMALY":275.455,"EPHEMERIS_TYPE":0,"CLASSIFICATION_TYPE":"U","NORAD_CAT_ID":46362,"ELEMENT_SET_NO":999,"REV_AT_EPOCH":18595,"BSTAR":0.00033844,"MEAN_MOTION_DOT":4.764e-5,"MEAN_MOTION_DDOT":0},{"OBJECT_NAME":"STARLINK-1739","OBJECT_ID":"2020-062AQ","EPOCH":"2024-01-08T23:32:47.173056","MEAN_MOTION":15.06406758,"ECCENTRICITY":0.0001452,"INCLINATION":53.0539,"RA_OF_ASC_NODE":281.2416,"ARG_OF_PERICENTER":95.4764,"MEAN_ANOMALY":264.639,"EPHEMERIS_TYPE":0,"CLASSIFICATION_TYPE":"U","NORAD_CAT_ID":46363,"ELEMENT_SET_NO":999,"REV_AT_EPOCH":18591,"BSTAR":0.00013271,"MEAN_MOTION_DOT":1.696e-5,"MEAN_MOTION_DDOT":0},{"OBJECT_NAME":"STARLINK-1763","OBJECT_ID":"2020-062AR","EPOCH":"2024-01-08T23:36:53.844192","MEAN_MOTION":15.06409264,"ECCENTRICITY":0.0001504,"INCLINATION":53.0545,"RA_OF_ASC_NODE":261.7433,"ARG_OF_PERICENTER":98.4939,"MEAN_ANOMALY":261.622,"EPHEMERIS_TYPE":0,"CLASSIFICATION_TYPE":"U","NORAD_CAT_ID":46364,"ELEMENT_SET_NO":999,"REV_AT_EPOCH":18621,"BSTAR":0.00012609,"MEAN_MOTION_DOT":1.598e-5,"MEAN_MOTION_DDOT":0},{"OBJECT_NAME":"STARLINK-1550","OBJECT_ID":"2020-062AS","EPOCH":"2024-01-08T22:08:07.474272","MEAN_MOTION":15.6490816,"ECCENTRICITY":0.0007222,"INCLINATION":53.0484,"RA_OF_ASC_NODE":250.5807,"ARG_OF_PERICENTER":139.7787,"MEAN_ANOMALY":220.3763,"EPHEMERIS_TYPE":0,"CLASSIFICATION_TYPE":"U","NORAD_CAT_ID":46365,"ELEMENT_SET_NO":999,"REV_AT_EPOCH":18634,"BSTAR":0.00090623,"MEAN_MOTION_DOT":0.00090896,"MEAN_MOTION_DDOT":0},{"OBJECT_NAME":"STARLINK-1651","OBJECT_ID":"2020-062AT","EPOCH":"2024-01-09T00:21:55.873728","MEAN_MOTION":15.06415377,"ECCENTRICITY":0.0001458,"INCLINATION":53.0538,"RA_OF_ASC_NODE":281.0973,"ARG_OF_PERICENTER":83.3906,"MEAN_ANOMALY":276.7249,"EPHEMERIS_TYPE":0,"CLASSIFICATION_TYPE":"U","NORAD_CAT_ID":46366,"ELEMENT_SET_NO":999,"REV_AT_EPOCH":18594,"BSTAR":0.00076353,"MEAN_MOTION_DOT":0.00011114,"MEAN_MOTION_DDOT":0},{"OBJECT_NAME":"STARLINK-1658","OBJECT_ID":"2020-062AV","EPOCH":"2024-01-09T00:19:54.316704","MEAN_MOTION":15.06400164,"ECCENTRICITY":0.000179,"INCLINATION":53.0553,"RA_OF_ASC_NODE":306.091,"ARG_OF_PERICENTER":121.1835,"MEAN_ANOMALY":238.9329,"EPHEMERIS_TYPE":0,"CLASSIFICATION_TYPE":"U","NORAD_CAT_ID":46368,"ELEMENT_SET_NO":999,"REV_AT_EPOCH":18560,"BSTAR":0.00026146,"MEAN_MOTION_DOT":3.615e-5,"MEAN_MOTION_DDOT":0}]
